[
{
"name": "INMARSAT 5-F1",
"line1": "1 39476U 13073A   26179.74537877  .00000039  00000+0  00000+0 0  9996",
"line2": "2 39476   0.0190  21.2561 0000543 349.5691 236.9784  1.00270794 45690"
},
{
"name": "INMARSAT 5-F2",
"line1": "1 40384U 15005A   26179.43696303 -.00000274  00000+0  00000+0 0  9991",
"line2": "2 40384   0.0185  11.9453 0000543  71.3802 295.5055  1.00273226 41101"
},
{
"name": "INMARSAT 5-F3",
"line1": "1 40882U 15042A   26179.62823887  .00000061  00000+0  00000+0 0  9998",
"line2": "2 40882   0.0187  22.9932 0000474 100.3806 199.1051  1.00269137 39681"
},
{
"name": "INMARSAT 5-F4",
"line1": "1 42698U 17025A   26179.88681757  .00000000  00000+0  00000+0 0  9997",
"line2": "2 42698   0.0281  29.4368 0000234  31.3395 231.9618  1.00269674 33390"
},
{
"name": "INMARSAT GX5",
"line1": "1 44801U 19080B   26179.99869508  .00000086  00000+0  00000+0 0  9996",
"line2": "2 44801   0.0350 348.3565 0002340 105.6611 193.5990  1.00274283  6908"
},
{
"name": "INMARSAT 6-F1",
"line1": "1 50319U 21128A   26179.19141985 -.00000159  00000+0  00000+0 0  9999",
"line2": "2 50319   0.0134 312.8118 0000342  97.4862  18.6639  1.00267629 16369"
},
{
"name": "INMARSAT 6-F2",
"line1": "1 55683U 23022A   26179.77699786 -.00000020  00000+0  00000+0 0  9991",
"line2": "2 55683   5.5568  36.5508 3074804 215.4399 159.6313  1.00957795 10679"
}
]